start=new Date('2023-02-19T00:00:00.000Z').valueOf();
sats=[{"LAUNCH_DATE":"2020-08-18","TLE_LINE2":"2 46153  53.0539 262.3565 0001199 110.0327 250.0791 15.06397084138277","NORAD_CAT_ID":"46153","OBJECT_ID":"2020-057AN","SEMIMAJOR_AXIS":"6925.357","SITE":"AFETR","COUNTRY_CODE":"US","CLASSIFICATION_TYPE":"U","CENTER_NAME":"EARTH","REV_AT_EPOCH":"13827","MEAN_ELEMENT_THEORY":"SGP4","DECAY_DATE":null,"EPOCH":"2023-02-18T14:53:55.699584","ECCENTRICITY":"0.00011990","GP_ID":"225919955","BSTAR":"0.00003523300000","MEAN_ANOMALY":"250.0791","EPHEMERIS_TYPE":"0","PERIOD":"95.592","RA_OF_ASC_NODE":"262.3565","ELEMENT_SET_NO":"999","TLE_LINE1":"1 46153U 20057AN  23049.62078356  .00000243  00000-0  35233-4 0  9997","OBJECT_TYPE":"PAYLOAD","MEAN_MOTION":"15.06397084","PERIAPSIS":"546.392","MEAN_MOTION_DOT":"0.00000243","APOAPSIS":"548.053","REF_FRAME":"TEME","TIME_SYSTEM":"UTC","MEAN_MOTION_DDOT":"0.0000000000000","OBJECT_NAME":"STARLINK-1636","ARG_OF_PERICENTER":"110.0327","FILE":"3807124","INCLINATION":"53.0539","RCS_SIZE":"LARGE"},{"MEAN_MOTION_DOT":"0.00000596","MEAN_MOTION":"15.06397763","PERIAPSIS":"546.425","RA_OF_ASC_NODE":"275.5877","PERIOD":"95.592","EPHEMERIS_TYPE":"0","OBJECT_TYPE":"PAYLOAD","ELEMENT_SET_NO":"999","TLE_LINE1":"1 46154U 20057AP  23048.90110326  .00000596  00000-0  58913-4 0  9993","FILE":"3804075","RCS_SIZE":"LARGE","INCLINATION":"53.0533","APOAPSIS":"548.016","MEAN_MOTION_DDOT":"0.0000000000000","OBJECT_NAME":"STARLINK-1642","ARG_OF_PERICENTER":"95.6840","REF_FRAME":"TEME","TIME_SYSTEM":"UTC","COUNTRY_CODE":"US","SITE":"AFETR","SEMIMAJOR_AXIS":"6925.355","OBJECT_ID":"2020-057AP","NORAD_CAT_ID":"46154","TLE_LINE2":"2 46154  53.0533 275.5877 0001149  95.6840 264.4280 15.06397763138037","LAUNCH_DATE":"2020-08-18","ECCENTRICITY":"0.00011490","EPOCH":"2023-02-17T21:37:35.321664","DECAY_DATE":null,"MEAN_ANOMALY":"264.4280","GP_ID":"225833536","BSTAR":"0.00005891300000","CENTER_NAME":"EARTH","REV_AT_EPOCH":"13803","CLASSIFICATION_TYPE":"U","MEAN_ELEMENT_THEORY":"SGP4"},{"APOAPSIS":"547.908","MEAN_MOTION_DDOT":"0.0000000000000","ARG_OF_PERICENTER":"82.1226","OBJECT_NAME":"STARLINK-1667","REF_FRAME":"TEME","TIME_SYSTEM":"UTC","FILE":"3807223","RCS_SIZE":"LARGE","INCLINATION":"53.0512","RA_OF_ASC_NODE":"241.6089","PERIOD":"95.592","EPHEMERIS_TYPE":"0","OBJECT_TYPE":"PAYLOAD","ELEMENT_SET_NO":"999","TLE_LINE1":"1 46155U 20057AQ  23049.78849138  .00003472  00000-0  25183-3 0  9999","MEAN_MOTION_DOT":"0.00003472","PERIAPSIS":"546.520","MEAN_MOTION":"15.06399855","CENTER_NAME":"EARTH","REV_AT_EPOCH":"13924","CLASSIFICATION_TYPE":"U","MEAN_ELEMENT_THEORY":"SGP4","ECCENTRICITY":"0.00010020","EPOCH":"2023-02-18T18:55:25.655232","DECAY_DATE":null,"MEAN_ANOMALY":"277.9876","GP_ID":"225928499","BSTAR":"0.00025183000000","OBJECT_ID":"2020-057AQ","TLE_LINE2":"2 46155  53.0512 241.6089 0001002  82.1226 277.9876 15.06399855139249","LAUNCH_DATE":"2020-08-18","NORAD_CAT_ID":"46155","COUNTRY_CODE":"US","SITE":"AFETR","SEMIMAJOR_AXIS":"6925.349"},{"SEMIMAJOR_AXIS":"6925.345","SITE":"AFETR","COUNTRY_CODE":"US","LAUNCH_DATE":"2020-08-18","TLE_LINE2":"2 46156  53.0518 261.3513 0001187  92.4929 267.6196 15.06401242138980","NORAD_CAT_ID":"46156","OBJECT_ID":"2020-057AR","BSTAR":"0.00021641000000","GP_ID":"225954812","MEAN_ANOMALY":"267.6196","DECAY_DATE":null,"EPOCH":"2023-02-18T20:17:41.843616","ECCENTRICITY":"0.00011870","MEAN_ELEMENT_THEORY":"SGP4","CLASSIFICATION_TYPE":"U","CENTER_NAME":"EARTH","REV_AT_EPOCH":"13898","MEAN_MOTION":"15.06401242","PERIAPSIS":"546.388","MEAN_MOTION_DOT":"0.00002944","ELEMENT_SET_NO":"999","TLE_LINE1":"1 46156U 20057AR  23049.84562319  .00002944  00000-0  21641-3 0  9998","OBJECT_TYPE":"PAYLOAD","EPHEMERIS_TYPE":"0","PERIOD":"95.592","RA_OF_ASC_NODE":"261.3513","INCLINATION":"53.0518","RCS_SIZE":"LARGE","FILE":"3808364","REF_FRAME":"TEME","TIME_SYSTEM":"UTC","MEAN_MOTION_DDOT":"0.0000000000000","OBJECT_NAME":"STARLINK-1545","ARG_OF_PERICENTER":"92.4929","APOAPSIS":"548.032"},{"MEAN_ANOMALY":"296.9355","GP_ID":"225954808","BSTAR":"0.00078101000000","EPOCH":"2023-02-18T21:34:39.703296","ECCENTRICITY":"0.00011700","DECAY_DATE":null,"MEAN_ELEMENT_THEORY":"SGP4","REV_AT_EPOCH":"13926","CENTER_NAME":"EARTH","CLASSIFICATION_TYPE":"U","SEMIMAJOR_AXIS":"6925.262","SITE":"AFETR","COUNTRY_CODE":"US","TLE_LINE2":"2 46157  53.0511 241.1099 0001170  63.1754 296.9355 15.06428234139266","NORAD_CAT_ID":"46157","LAUNCH_DATE":"2020-08-18","OBJECT_ID":"2020-057AS","INCLINATION":"53.0511","RCS_SIZE":"LARGE","FILE":"3808364","REF_FRAME":"TEME","TIME_SYSTEM":"UTC","MEAN_MOTION_DDOT":"0.0000000000000","ARG_OF_PERICENTER":"63.1754","OBJECT_NAME":"STARLINK-1587","APOAPSIS":"547.937","MEAN_MOTION_DOT":"0.00011380","PERIAPSIS":"546.317","MEAN_MOTION":"15.06428234","OBJECT_TYPE":"PAYLOAD","TLE_LINE1":"1 46157U 20057AS  23049.89907064  .00011380  00000-0  78101-3 0  9991","ELEMENT_SET_NO":"999","PERIOD":"95.590","EPHEMERIS_TYPE":"0","RA_OF_ASC_NODE":"241.1099"},{"COUNTRY_CODE":"US","SITE":"AFETR","SEMIMAJOR_AXIS":"6925.393","OBJECT_ID":"2020-057AT","TLE_LINE2":"2 46158  53.0535 241.4218 0001254  93.4964 266.6168 15.06385375139254","NORAD_CAT_ID":"46158","LAUNCH_DATE":"2020-08-18","BSTAR":"-0.00020454000000","GP_ID":"225927931","MEAN_ANOMALY":"266.6168","ECCENTRICITY":"0.00012540","EPOCH":"2023-02-18T19:53:49.087104","DECAY_DATE":null,"MEAN_ELEMENT_THEORY":"SGP4","REV_AT_EPOCH":"13925","CENTER_NAME":"EARTH","CLASSIFICATION_TYPE":"U","MEAN_MOTION_DOT":"-0.00003325","PERIAPSIS":"546.390","MEAN_MOTION":"15.06385375","OBJECT_TYPE":"PAYLOAD","ELEMENT_SET_NO":"999","TLE_LINE1":"1 46158U 20057AT  23049.82904036 -.00003325  00000-0 -20454-3 0  9991","RA_OF_ASC_NODE":"241.4218","PERIOD":"95.593","EPHEMERIS_TYPE":"0","RCS_SIZE":"LARGE","INCLINATION":"53.0535","FILE":"3807145","ARG_OF_PERICENTER":"93.4964","MEAN_MOTION_DDOT":"0.0000000000000","OBJECT_NAME":"STARLINK-1589","REF_FRAME":"TEME","TIME_SYSTEM":"UTC","APOAPSIS":"548.127"},{"TLE_LINE2":"2 46159  53.0525 282.1323 0001228 100.4487 259.6641 15.06398160138661","LAUNCH_DATE":"2020-08-18","NORAD_CAT_ID":"46159","OBJECT_ID":"2020-057AU","SEMIMAJOR_AXIS":"6925.354","COUNTRY_CODE":"US","SITE":"AFETR","MEAN_ELEMENT_THEORY":"SGP4","CENTER_NAME":"EARTH","REV_AT_EPOCH":"13866","CLASSIFICATION_TYPE":"U","MEAN_ANOMALY":"259.6641","GP_ID":"225928002","BSTAR":"0.00011252000000","EPOCH":"2023-02-18T16:05:35.320416","ECCENTRICITY":"0.00012280","DECAY_DATE":null,"OBJECT_TYPE":"PAYLOAD","ELEMENT_SET_NO":"999","TLE_LINE1":"1 46159U 20057AU  23049.67054769  .00001395  00000-0  11252-3 0  9993","PERIOD":"95.592","EPHEMERIS_TYPE":"0","RA_OF_ASC_NODE":"282.1323","MEAN_MOTION_DOT":"0.00001395","PERIAPSIS":"546.369","MEAN_MOTION":"15.06398160","TIME_SYSTEM":"UTC","REF_FRAME":"TEME","MEAN_MOTION_DDOT":"0.0000000000000","ARG_OF_PERICENTER":"100.4487","OBJECT_NAME":"STARLINK-1595","APOAPSIS":"548.070","INCLINATION":"53.0525","RCS_SIZE":"LARGE","FILE":"3807149"},{"MEAN_MOTION_DOT":"-0.00001481","MEAN_MOTION":"15.06383835","PERIAPSIS":"546.467","RA_OF_ASC_NODE":"261.8796","PERIOD":"95.593","EPHEMERIS_TYPE":"0","OBJECT_TYPE":"PAYLOAD","ELEMENT_SET_NO":"999","TLE_LINE1":"1 46160U 20057AV  23049.72768309 -.00001481  00000-0 -80595-4 0  9998","FILE":"3807760","RCS_SIZE":"LARGE","INCLINATION":"53.0518","APOAPSIS":"548.059","MEAN_MOTION_DDOT":"0.0000000000000","ARG_OF_PERICENTER":"96.6517","OBJECT_NAME":"STARLINK-1598","TIME_SYSTEM":"UTC","REF_FRAME":"TEME","COUNTRY_CODE":"US","SITE":"AFETR","SEMIMAJOR_AXIS":"6925.398","OBJECT_ID":"2020-057AV","NORAD_CAT_ID":"46160","TLE_LINE2":"2 46160  53.0518 261.8796 0001149  96.6517 263.4603 15.06383835138962","LAUNCH_DATE":"2020-08-18","ECCENTRICITY":"0.00011490","EPOCH":"2023-02-18T17:27:51.818976","DECAY_DATE":null,"GP_ID":"225942139","BSTAR":"-0.00008059500000","MEAN_ANOMALY":"263.4603","REV_AT_EPOCH":"13896","CENTER_NAME":"EARTH","CLASSIFICATION_TYPE":"U","MEAN_ELEMENT_THEORY":"SGP4"},{"DECAY_DATE":null,"EPOCH":"2023-02-18T20:07:05.285568","ECCENTRICITY":"0.00014190","BSTAR":"0.00017838000000","GP_ID":"225928139","MEAN_ANOMALY":"277.2064","CLASSIFICATION_TYPE":"U","CENTER_NAME":"EARTH","REV_AT_EPOCH":"13897","MEAN_ELEMENT_THEORY":"SGP4","SEMIMAJOR_AXIS":"6925.352","COUNTRY_CODE":"US","SITE":"AFETR","NORAD_CAT_ID":"46161","TLE_LINE2":"2 46161  53.0525 261.3832 0001419  82.9087 277.2064 15.06398804138974","LAUNCH_DATE":"2020-08-18","OBJECT_ID":"2020-057AW","FILE":"3807163","INCLINATION":"53.0525","RCS_SIZE":"LARGE","APOAPSIS":"548.200","TIME_SYSTEM":"UTC","REF_FRAME":"TEME","MEAN_MOTION_DDOT":"0.0000000000000","ARG_OF_PERICENTER":"82.9087","OBJECT_NAME":"STARLINK-1600","PERIAPSIS":"546.235","MEAN_MOTION":"15.06398804","MEAN_MOTION_DOT":"0.00002376","EPHEMERIS_TYPE":"0","PERIOD":"95.592","RA_OF_ASC_NODE":"261.3832","ELEMENT_SET_NO":"999","TLE_LINE1":"1 46161U 20057AW  23049.83825562  .00002376  00000-0  17838-3 0  9997","OBJECT_TYPE":"PAYLOAD"},{"CLASSIFICATION_TYPE":"U","REV_AT_EPOCH":"13898","CENTER_NAME":"EARTH","MEAN_ELEMENT_THEORY":"SGP4","DECAY_DATE":null,"ECCENTRICITY":"0.00010950","EPOCH":"2023-02-18T20:12:23.806944","GP_ID":"225928194","MEAN_ANOMALY":"271.2548","BSTAR":"0.00016401000000","TLE_LINE2":"2 46162  53.0517 261.3627 0001095  88.8567 271.2548 15.06395587138983","LAUNCH_DATE":"2020-08-18","NORAD_CAT_ID":"46162","OBJECT_ID":"2020-057AX","SEMIMAJOR_AXIS":"6925.362","COUNTRY_CODE":"US","SITE":"AFETR","APOAPSIS":"547.985","TIME_SYSTEM":"UTC","REF_FRAME":"TEME","MEAN_MOTION_DDOT":"0.0000000000000","ARG_OF_PERICENTER":"88.8567","OBJECT_NAME":"STARLINK-1603","FILE":"3807166","INCLINATION":"53.0517","RCS_SIZE":"LARGE","EPHEMERIS_TYPE":"0","PERIOD":"95.592","RA_OF_ASC_NODE":"261.3627","ELEMENT_SET_NO":"999","TLE_LINE1":"1 46162U 20057AX  23049.84194221  .00002162  00000-0  16401-3 0  9998","OBJECT_TYPE":"PAYLOAD","PERIAPSIS":"546.469","MEAN_MOTION":"15.06395587","MEAN_MOTION_DOT":"0.00002162"}];
